STARLINK-30305          
1 57775U 23134E   26068.36235210 -.00000642  00000+0 -13812-4 0  9990
2 57775  42.9993 196.5981 0001334 208.7239 151.3540 15.27572198139458
FLOCK 4G-25             
1 62646U 25009AP  26068.74572546  .00010373  00000+0  38902-3 0  9990
2 62646  97.4049 151.4141 0000828 316.3151  43.8023 15.27424196 63734
